ADRAS-J                 
1 58992U 24034A   24287.52666551  .00007946  00000+0  70262-3 0  9990
2 58992  98.2259 266.1427 0043726  21.4957 338.8086 14.95871699 35540
